0 COSMOS 2251 DEB
1 36046U 93036AXH 13287.68918814  .00001004  00000-0  25623-3 0  1095
2 36046 074.0403 055.9441 0073676 216.6272 143.8001 14.50285979233131
0 COSMOS 2251 DEB
1 36046U 93036AXH 13291.00008256  .00001749  00000-0  44140-3 0  1109
2 36046 074.0197 049.6702 0071757 211.4806 148.3660 14.50308740233611
